[{"OBJECT_NAME":"STARLINK-4440","OBJECT_ID":"2022-105Z","EPOCH":"2026-03-09T16:14:24.571392","MEAN_MOTION":15.01291028,"ECCENTRICITY":0.00030651,"INCLINATION":97.6027,"RA_OF_ASC_NODE":310.2063,"ARG_OF_PERICENTER":62.8472,"MEAN_ANOMALY":297.3064,"EPHEMERIS_TYPE":0,"CLASSIFICATION_TYPE":"U","NORAD_CAT_ID":53671,"ELEMENT_SET_NO":999,"REV_AT_EPOCH":19323,"BSTAR":0.00029745866,"MEAN_MOTION_DOT":3.768e-5,"MEAN_MOTION_DDOT":0},{"OBJECT_NAME":"CZ-4C DEB","OBJECT_ID":"2010-038C","EPOCH":"2026-03-09T11:39:53.947584","MEAN_MOTION":15.01546644,"ECCENTRICITY":0.00721012,"INCLINATION":97.7316,"RA_OF_ASC_NODE":260.9237,"ARG_OF_PERICENTER":198.3771,"MEAN_ANOMALY":193.4151,"EPHEMERIS_TYPE":0,"CLASSIFICATION_TYPE":"U","NORAD_CAT_ID":37567,"ELEMENT_SET_NO":999,"REV_AT_EPOCH":82756,"BSTAR":0.0017211285,"MEAN_MOTION_DOT":0.00023562,"MEAN_MOTION_DDOT":0}]
